{
  "type": "FeatureCollection",
  "features": [
    {
      "type": "Feature",
      "properties": {
        "norad_id": 37238,
        "name": "INTELSAT 17 (IS-17)",
        "group": "intelsat",
        "lat": -0.006111917136382405,
        "lon": -27.491493953941053,
        "alt_km": 35779.03775225135,
        "timestamp": "2025-12-24T11:32:59.671800+00:00",
        "meta_object_name": "INTELSAT 17 (IS-17)",
        "meta_object_id": "2010-065B",
        "meta_epoch": "2025-12-24T02:18:38.732832",
        "meta_mean_motion": 1.00271512,
        "meta_eccentricity": 0.0002678,
        "meta_inclination": 0.0039,
        "meta_ra_of_asc_node": 327.2079,
        "meta_arg_of_pericenter": 314.1259,
        "meta_mean_anomaly": 272.1908,
        "meta_ephemeris_type": 0,
        "meta_classification_type": "U",
        "meta_norad_cat_id": 37238,
        "meta_element_set_no": 999,
        "meta_rev_at_epoch": 5149,
        "meta_bstar": 0,
        "meta_mean_motion_dot": 2e-07,
        "meta_mean_motion_ddot": 0,
        "tle_line1": "1 37238U 10065B   25358.09628163  .00000020  00000+0  00000+0 0  9993",
        "tle_line2": "2 37238   0.0039 327.2079 0002678 314.1259 272.1908  1.00271512 51492"
      },
      "geometry": {
        "type": "Point",
        "coordinates": [
          -27.491493953941053,
          -0.006111917136382405
        ]
      }
    },
    {
      "type": "Feature",
      "properties": {
        "norad_id": 37392,
        "name": "INTELSAT 28 (IS-28)",
        "group": "intelsat",
        "lat": 0.6653804592823598,
        "lon": -125.22544058350334,
        "alt_km": 35773.31024960409,
        "timestamp": "2025-12-24T11:32:59.671811+00:00",
        "meta_object_name": "INTELSAT 28 (IS-28)",
        "meta_object_id": "2011-016A",
        "meta_epoch": "2025-12-23T23:15:08.784288",
        "meta_mean_motion": 1.0027234,
        "meta_eccentricity": 0.0003694,
        "meta_inclination": 1.3518,
        "meta_ra_of_asc_node": 84.9333,
        "meta_arg_of_pericenter": 186.3299,
        "meta_mean_anomaly": 138.5663,
        "meta_ephemeris_type": 0,
        "meta_classification_type": "U",
        "meta_norad_cat_id": 37392,
        "meta_element_set_no": 999,
        "meta_rev_at_epoch": 5152,
        "meta_bstar": 0,
        "meta_mean_motion_dot": -2.04e-06,
        "meta_mean_motion_ddot": 0,
        "tle_line1": "1 37392U 11016A   25357.96885167 -.00000204  00000+0  00000+0 0  9990",
        "tle_line2": "2 37392   1.3518  84.9333 0003694 186.3299 138.5663  1.00272340 51528"
      },
      "geometry": {
        "type": "Point",
        "coordinates": [
          -125.22544058350334,
          0.6653804592823598
        ]
      }
    },
    {
      "type": "Feature",
      "properties": {
        "norad_id": 37834,
        "name": "INTELSAT 18 (IS-18)",
        "group": "intelsat",
        "lat": 0.021423051820949817,
        "lon": 86.50151955493756,
        "alt_km": 35793.135395163066,
        "timestamp": "2025-12-24T11:32:59.671823+00:00",
        "meta_object_name": "INTELSAT 18 (IS-18)",
        "meta_object_id": "2011-056A",
        "meta_epoch": "2025-12-23T17:24:42.196032",
        "meta_mean_motion": 1.00271479,
        "meta_eccentricity": 0.00017794,
        "meta_inclination": 0.025,
        "meta_ra_of_asc_node": 285.7731,
        "meta_arg_of_pericenter": 1.9109,
        "meta_mean_anomaly": 245.9993,
        "meta_ephemeris_type": 0,
        "meta_classification_type": "U",
        "meta_norad_cat_id": 37834,
        "meta_element_set_no": 999,
        "meta_rev_at_epoch": 5205,
        "meta_bstar": 0,
        "meta_mean_motion_dot": 7.4e-07,
        "meta_mean_motion_ddot": 0,
        "tle_line1": "1 37834U 11056A   25357.72548838  .00000074  00000+0  00000+0 0  9994",
        "tle_line2": "2 37834   0.0250 285.7731 0001779   1.9109 245.9993  1.00271479 52055"
      },
      "geometry": {
        "type": "Point",
        "coordinates": [
          86.50151955493756,
          0.021423051820949817
        ]
      }
    },
    {
      "type": "Feature",
      "properties": {
        "norad_id": 38098,
        "name": "INTELSAT 22 (IS-22)",
        "group": "intelsat",
        "lat": -0.03860219438104494,
        "lon": -21.402845939418093,
        "alt_km": 35780.43590233783,
        "timestamp": "2025-12-24T11:32:59.671836+00:00",
        "meta_object_name": "INTELSAT 22 (IS-22)",
        "meta_object_id": "2012-011A",
        "meta_epoch": "2025-12-24T01:56:51.561312",
        "meta_mean_motion": 1.00270449,
        "meta_eccentricity": 0.0001933,
        "meta_inclination": 0.0277,
        "meta_ra_of_asc_node": 43.4014,
        "meta_arg_of_pericenter": 252.7744,
        "meta_mean_anomaly": 257.9865,
        "meta_ephemeris_type": 0,
        "meta_classification_type": "U",
        "meta_norad_cat_id": 38098,
        "meta_element_set_no": 999,
        "meta_rev_at_epoch": 543,
        "meta_bstar": 0,
        "meta_mean_motion_dot": 0,
        "meta_mean_motion_ddot": 0,
        "tle_line1": "1 38098U 12011A   25358.08115233  .00000000  00000+0  00000+0 0  9997",
        "tle_line2": "2 38098   0.0277  43.4014 0001933 252.7744 257.9865  1.00270449  5430"
      },
      "geometry": {
        "type": "Point",
        "coordinates": [
          -21.402845939418093,
          -0.03860219438104494
        ]
      }
    },
    {
      "type": "Feature",
      "properties": {
        "norad_id": 38356,
        "name": "INTELSAT 19 (IS-19)",
        "group": "intelsat",
        "lat": 0.028385233414737546,
        "lon": 72.51277876469497,
        "alt_km": 35797.687456321255,
        "timestamp": "2025-12-24T11:32:59.671848+00:00",
        "meta_object_name": "INTELSAT 19 (IS-19)",
        "meta_object_id": "2012-030A",
        "meta_epoch": "2025-12-23T20:46:08.056128",
        "meta_mean_motion": 1.00272107,
        "meta_eccentricity": 0.0002888,
        "meta_inclination": 0.0148,
        "meta_ra_of_asc_node": 321.6246,
        "meta_arg_of_pericenter": 307.6478,
        "meta_mean_anomaly": 300.9143,
        "meta_ephemeris_type": 0,
        "meta_classification_type": "U",
        "meta_norad_cat_id": 38356,
        "meta_element_set_no": 999,
        "meta_rev_at_epoch": 4869,
        "meta_bstar": 0,
        "meta_mean_motion_dot": -3.5e-07,
        "meta_mean_motion_ddot": 0,
        "tle_line1": "1 38356U 12030A   25357.86537102 -.00000035  00000+0  00000+0 0  9992",
        "tle_line2": "2 38356   0.0148 321.6246 0002888 307.6478 300.9143  1.00272107 48692"
      },
      "geometry": {
        "type": "Point",
        "coordinates": [
          72.51277876469497,
          0.028385233414737546
        ]
      }
    },
    {
      "type": "Feature",
      "properties": {
        "norad_id": 38740,
        "name": "INTELSAT 20 (IS-20)",
        "group": "intelsat",
        "lat": -0.023988240611532888,
        "lon": -24.996853437791454,
        "alt_km": 35796.36030629066,
        "timestamp": "2025-12-24T11:32:59.671860+00:00",
        "meta_object_name": "INTELSAT 20 (IS-20)",
        "meta_object_id": "2012-043A",
        "meta_epoch": "2025-12-24T02:10:38.805024",
        "meta_mean_motion": 1.00271076,
        "meta_eccentricity": 0.0002714,
        "meta_inclination": 0.0108,
        "meta_ra_of_asc_node": 56.6343,
        "meta_arg_of_pericenter": 126.0527,
        "meta_mean_anomaly": 11.3373,
        "meta_ephemeris_type": 0,
        "meta_classification_type": "U",
        "meta_norad_cat_id": 38740,
        "meta_element_set_no": 999,
        "meta_rev_at_epoch": 4899,
        "meta_bstar": 0,
        "meta_mean_motion_dot": -3e-08,
        "meta_mean_motion_ddot": 0,
        "tle_line1": "1 38740U 12043A   25358.09072691 -.00000003  00000+0  00000+0 0  9991",
        "tle_line2": "2 38740   0.0108  56.6343 0002714 126.0527  11.3373  1.00271076 48999"
      },
      "geometry": {
        "type": "Point",
        "coordinates": [
          -24.996853437791454,
          -0.023988240611532888
        ]
      }
    },
    {
      "type": "Feature",
      "properties": {
        "norad_id": 38749,
        "name": "INTELSAT 21 (IS-21)",
        "group": "intelsat",
        "lat": -0.017497696087102114,
        "lon": -151.50684367297828,
        "alt_km": 35781.61452258859,
        "timestamp": "2025-12-24T11:32:59.671871+00:00",
        "meta_object_name": "INTELSAT 21 (IS-21)",
        "meta_object_id": "2012-045A",
        "meta_epoch": "2025-12-24T00:19:38.628192",
        "meta_mean_motion": 1.00273208,
        "meta_eccentricity": 0.0001643,
        "meta_inclination": 0.0147,
        "meta_ra_of_asc_node": 304.3329,
        "meta_arg_of_pericenter": 317.6645,
        "meta_mean_anomaly": 137.7166,
        "meta_ephemeris_type": 0,
        "meta_classification_type": "U",
        "meta_norad_cat_id": 38749,
        "meta_element_set_no": 999,
        "meta_rev_at_epoch": 4876,
        "meta_bstar": 0,
        "meta_mean_motion_dot": -2.64e-06,
        "meta_mean_motion_ddot": 0,
        "tle_line1": "1 38749U 12045A   25358.01364153 -.00000264  00000+0  00000+0 0  9990",
        "tle_line2": "2 38749   0.0147 304.3329 0001643 317.6645 137.7166  1.00273208 48764"
      },
      "geometry": {
        "type": "Point",
        "coordinates": [
          -151.50684367297828,
          -0.017497696087102114
        ]
      }
    }
  ]
}